{
 "generated_at": "2026-07-14T07:10:30Z",
 "sources": [
  {
   "name": "CelesTrak",
   "url": "https://celestrak.org/NORAD/elements/",
   "license": "frei verfügbar; Attribution. Ursprünglich USSPACECOM/Space-Track."
  },
  {
   "name": "GCAT (J. McDowell, planet4589.org)",
   "url": "https://planet4589.org/space/gcat/",
   "license": "CC-BY 4.0"
  }
 ],
 "satellites": [
  {
   "norad": 40275,
   "name": "YAOGAN-22",
   "intl": "2014-063A",
   "group": "resource",
   "gcat": {
    "class": null,
    "category": null,
    "owner": null,
    "state": null
   },
   "omm": {
    "OBJECT_NAME": "YAOGAN-22",
    "OBJECT_ID": "2014-063A",
    "EPOCH": "2026-07-13T10:09:32.832288",
    "MEAN_MOTION": 13.15531621,
    "ECCENTRICITY": 0.00068372,
    "INCLINATION": 100.7759,
    "RA_OF_ASC_NODE": 346.1359,
    "ARG_OF_PERICENTER": 128.8633,
    "MEAN_ANOMALY": 231.3089,
    "EPHEMERIS_TYPE": 0,
    "CLASSIFICATION_TYPE": "U",
    "NORAD_CAT_ID": 40275,
    "ELEMENT_SET_NO": 999,
    "REV_AT_EPOCH": 56326,
    "BSTAR": -0.000039219674,
    "MEAN_MOTION_DOT": -6.2e-7,
    "MEAN_MOTION_DDOT": 0
   }
  },
  {
   "norad": 40310,
   "name": "YAOGAN-24",
   "intl": "2014-072A",
   "group": "resource",
   "gcat": {
    "class": "D",
    "category": "IMG",
    "owner": "ZZB",
    "state": "CN"
   },
   "omm": {
    "OBJECT_NAME": "YAOGAN-24",
    "OBJECT_ID": "2014-072A",
    "EPOCH": "2026-07-13T20:34:20.620704",
    "MEAN_MOTION": 14.76117144,
    "ECCENTRICITY": 0.0014493,
    "INCLINATION": 98.1514,
    "RA_OF_ASC_NODE": 332.4222,
    "ARG_OF_PERICENTER": 173.8074,
    "MEAN_ANOMALY": 186.3317,
    "EPHEMERIS_TYPE": 0,
    "CLASSIFICATION_TYPE": "U",
    "NORAD_CAT_ID": 40310,
    "ELEMENT_SET_NO": 999,
    "REV_AT_EPOCH": 62765,
    "BSTAR": 0.000035492,
    "MEAN_MOTION_DOT": 0.00000192,
    "MEAN_MOTION_DDOT": 0
   }
  },
  {
   "norad": 40362,
   "name": "YAOGAN-26",
   "intl": "2014-088A",
   "group": "resource",
   "gcat": {
    "class": "D",
    "category": "IMG",
    "owner": "ZZB",
    "state": "CN"
   },
   "omm": {
    "OBJECT_NAME": "YAOGAN-26",
    "OBJECT_ID": "2014-088A",
    "EPOCH": "2026-07-13T21:32:06.059904",
    "MEAN_MOTION": 15.48406033,
    "ECCENTRICITY": 0.0002087,
    "INCLINATION": 97.0643,
    "RA_OF_ASC_NODE": 194.4994,
    "ARG_OF_PERICENTER": 348.8364,
    "MEAN_ANOMALY": 11.2841,
    "EPHEMERIS_TYPE": 0,
    "CLASSIFICATION_TYPE": "U",
    "NORAD_CAT_ID": 40362,
    "ELEMENT_SET_NO": 999,
    "REV_AT_EPOCH": 64183,
    "BSTAR": 0.00019079,
    "MEAN_MOTION_DOT": 0.00010025,
    "MEAN_MOTION_DDOT": 0
   }
  },
  {
   "norad": 40878,
   "name": "YAOGAN-27",
   "intl": "2015-040A",
   "group": "resource",
   "gcat": {
    "class": "D",
    "category": "IMG",
    "owner": "ZZB",
    "state": "CN"
   },
   "omm": {
    "OBJECT_NAME": "YAOGAN-27",
    "OBJECT_ID": "2015-040A",
    "EPOCH": "2026-07-13T20:44:00.940992",
    "MEAN_MOTION": 13.16071862,
    "ECCENTRICITY": 0.0008517,
    "INCLINATION": 100.116,
    "RA_OF_ASC_NODE": 180.0901,
    "ARG_OF_PERICENTER": 148.0309,
    "MEAN_ANOMALY": 212.1322,
    "EPHEMERIS_TYPE": 0,
    "CLASSIFICATION_TYPE": "U",
    "NORAD_CAT_ID": 40878,
    "ELEMENT_SET_NO": 999,
    "REV_AT_EPOCH": 52117,
    "BSTAR": 0.00064071,
    "MEAN_MOTION_DOT": 0.00000201,
    "MEAN_MOTION_DDOT": 0
   }
  },
  {
   "norad": 41026,
   "name": "YAOGAN-28",
   "intl": "2015-064A",
   "group": "resource",
   "gcat": {
    "class": "D",
    "category": "IMG",
    "owner": "ZZB",
    "state": "CN"
   },
   "omm": {
    "OBJECT_NAME": "YAOGAN-28",
    "OBJECT_ID": "2015-064A",
    "EPOCH": "2026-07-13T20:27:12.600288",
    "MEAN_MOTION": 15.27749373,
    "ECCENTRICITY": 0.0012079,
    "INCLINATION": 97.3104,
    "RA_OF_ASC_NODE": 332.5806,
    "ARG_OF_PERICENTER": 97.2365,
    "MEAN_ANOMALY": 263.0248,
    "EPHEMERIS_TYPE": 0,
    "CLASSIFICATION_TYPE": "U",
    "NORAD_CAT_ID": 41026,
    "ELEMENT_SET_NO": 999,
    "REV_AT_EPOCH": 59475,
    "BSTAR": 0.00015762,
    "MEAN_MOTION_DOT": 0.00004208,
    "MEAN_MOTION_DDOT": 0
   }
  },
  {
   "norad": 41038,
   "name": "YAOGAN-29",
   "intl": "2015-069A",
   "group": "resource",
   "gcat": {
    "class": "D",
    "category": "IMG-R",
    "owner": "ZZB",
    "state": "CN"
   },
   "omm": {
    "OBJECT_NAME": "YAOGAN-29",
    "OBJECT_ID": "2015-069A",
    "EPOCH": "2026-07-13T21:28:46.252992",
    "MEAN_MOTION": 14.83104215,
    "ECCENTRICITY": 0.0000824,
    "INCLINATION": 98.0024,
    "RA_OF_ASC_NODE": 223.5682,
    "ARG_OF_PERICENTER": 13.1391,
    "MEAN_ANOMALY": 346.9843,
    "EPHEMERIS_TYPE": 0,
    "CLASSIFICATION_TYPE": "U",
    "NORAD_CAT_ID": 41038,
    "ELEMENT_SET_NO": 999,
    "REV_AT_EPOCH": 57458,
    "BSTAR": 0.0000054536,
    "MEAN_MOTION_DOT": -1e-7,
    "MEAN_MOTION_DDOT": 0
   }
  },
  {
   "norad": 32289,
   "name": "YAOGAN-3",
   "intl": "2007-055A",
   "group": "resource",
   "gcat": {
    "class": null,
    "category": null,
    "owner": null,
    "state": null
   },
   "omm": {
    "OBJECT_NAME": "YAOGAN-3",
    "OBJECT_ID": "2007-055A",
    "EPOCH": "2026-07-13T20:10:04.468800",
    "MEAN_MOTION": 14.90879643,
    "ECCENTRICITY": 0.000164,
    "INCLINATION": 97.8149,
    "RA_OF_ASC_NODE": 224.4543,
    "ARG_OF_PERICENTER": 81.1373,
    "MEAN_ANOMALY": 279.003,
    "EPHEMERIS_TYPE": 0,
    "CLASSIFICATION_TYPE": "U",
    "NORAD_CAT_ID": 32289,
    "ELEMENT_SET_NO": 999,
    "REV_AT_EPOCH": 984,
    "BSTAR": 0.00016951,
    "MEAN_MOTION_DOT": 0.00001615,
    "MEAN_MOTION_DDOT": 0
   }
  },
  {
   "norad": 33446,
   "name": "YAOGAN-4",
   "intl": "2008-061A",
   "group": "resource",
   "gcat": {
    "class": null,
    "category": null,
    "owner": null,
    "state": null
   },
   "omm": {
    "OBJECT_NAME": "YAOGAN-4",
    "OBJECT_ID": "2008-061A",
    "EPOCH": "2026-07-13T19:32:49.559136",
    "MEAN_MOTION": 14.83249773,
    "ECCENTRICITY": 0.001396,
    "INCLINATION": 97.9303,
    "RA_OF_ASC_NODE": 128.129,
    "ARG_OF_PERICENTER": 350.2314,
    "MEAN_ANOMALY": 9.8626,
    "EPHEMERIS_TYPE": 0,
    "CLASSIFICATION_TYPE": "U",
    "NORAD_CAT_ID": 33446,
    "ELEMENT_SET_NO": 999,
    "REV_AT_EPOCH": 94961,
    "BSTAR": 0.00006376,
    "MEAN_MOTION_DOT": 0.00000468,
    "MEAN_MOTION_DDOT": 0
   }
  },
  {
   "norad": 36110,
   "name": "YAOGAN-7",
   "intl": "2009-069A",
   "group": "resource",
   "gcat": {
    "class": null,
    "category": null,
    "owner": null,
    "state": null
   },
   "omm": {
    "OBJECT_NAME": "YAOGAN-7",
    "OBJECT_ID": "2009-069A",
    "EPOCH": "2026-07-13T16:39:57.907872",
    "MEAN_MOTION": 14.78034681,
    "ECCENTRICITY": 0.0023604,
    "INCLINATION": 98.0035,
    "RA_OF_ASC_NODE": 80.3936,
    "ARG_OF_PERICENTER": 316.4079,
    "MEAN_ANOMALY": 43.5266,
    "EPHEMERIS_TYPE": 0,
    "CLASSIFICATION_TYPE": "U",
    "NORAD_CAT_ID": 36110,
    "ELEMENT_SET_NO": 999,
    "REV_AT_EPOCH": 89354,
    "BSTAR": 0.000038073,
    "MEAN_MOTION_DOT": 0.00000223,
    "MEAN_MOTION_DDOT": 0
   }
  },
  {
   "norad": 38038,
   "name": "ZIYUAN 1-02C (ZY 1-02C)",
   "intl": "2011-079A",
   "group": "resource",
   "gcat": {
    "class": null,
    "category": null,
    "owner": null,
    "state": null
   },
   "omm": {
    "OBJECT_NAME": "ZIYUAN 1-02C (ZY 1-02C)",
    "OBJECT_ID": "2011-079A",
    "EPOCH": "2026-07-13T20:56:18.680352",
    "MEAN_MOTION": 14.38234982,
    "ECCENTRICITY": 0.0005495,
    "INCLINATION": 98.4069,
    "RA_OF_ASC_NODE": 261.6216,
    "ARG_OF_PERICENTER": 219.3929,
    "MEAN_ANOMALY": 266.0297,
    "EPHEMERIS_TYPE": 0,
    "CLASSIFICATION_TYPE": "U",
    "NORAD_CAT_ID": 38038,
    "ELEMENT_SET_NO": 999,
    "REV_AT_EPOCH": 76304,
    "BSTAR": 0.000096052,
    "MEAN_MOTION_DOT": 0.00000249,
    "MEAN_MOTION_DDOT": 0
   }
  }
 ]
}
